ATLAS 5 CENTAUR DEB     
1 52045U 18079GP  26110.56029074 -.00000073  00000+0  00000+0 0  9993
2 52045  13.2261  63.7494 4567798 249.5959  56.7316  1.72867390 29692
MERIDIAN 10             
1 52145U 22030A   26117.12775012  .00000229  00000+0  00000+0 0  9997
2 52145  62.6748 146.2598 6770796 272.9014  17.7373  2.00616466 30006
FREGAT R/B              
1 52146U 22030B   26112.27298657  .00001303  00000+0  00000+0 0  9998
2 52146  62.6896 141.1582 6849489 274.4866  16.5469  2.00192580 29890
ZHONGXING-6D            
1 52255U 22038A   26116.05791476 -.00000367  00000+0  00000+0 0  9994
2 52255   0.0191 243.0152 0001547 100.0281  16.9429  1.00270649 14902
NILESAT 301             
1 52817U 22061A   26117.22822620 -.00000067  00000+0  00000+0 0  9997
2 52817   0.0613  40.8793 0005904 340.2941 269.2277  1.00272961 14229
FALCON 9 R/B            
1 52818U 22061B   26116.37597928  .00001593  00000+0  24336-2 0  9998
2 52818  18.8543 347.3609 7637881 226.2879  37.6300  1.82131159 25381
CMS-02 (GSAT-24)        
1 52903U 22067A   26117.00958792 -.00000176  00000+0  00000+0 0  9996
2 52903   0.0127 208.2142 0002210 140.6895 312.5842  1.00270808 14093
MEASAT 3D               
1 52904U 22067B   26117.20233531 -.00000252  00000+0  00000+0 0  9991
2 52904   0.0470  43.1455 0002290 323.5932  12.8031  1.00270733 14132
SES-22                  
1 52933U 22071A   26117.16850116  .00000094  00000+0  00000+0 0  9990
2 52933   0.0203 273.6155 0001028 119.2051 103.9973  1.00274145  7012
WFOV (USA 332)          
1 52940U 22073A   26116.94545433 -.00000370  00000+0  00000+0 0  9996
2 52940   3.5816  79.1598 0002091 244.3227 351.0838  1.00273133 13855
ATLAS 5 CENTAUR DEB     
1 52973U 18079GX  26116.13996105 -.00000065  00000+0  00000+0 0  9991
2 52973  12.7529  72.8318 4522787 236.3284  72.2331  1.71410334 29537
TIANLIAN 2-03           
1 53100U 22078A   26117.21711356  .00000062  00000+0  00000+0 0  9997
2 53100   0.5419  75.5321 0002485 286.7514 301.6583  1.00272882 14039
SBIRS GEO-6 (USA 336)   
1 53355U 22092A   26116.94935433 -.00000309  00000+0  00000+0 0  9993
2 53355   3.3455 316.6798 0002109  68.3767 310.6484  1.00271686 13722
EUTELSAT KONNECT VHTS   
1 53765U 22110A   26117.22267126  .00000007  00000+0  00000+0 0  9992
2 53765   0.0617  92.6218 0002916 274.2747 291.1840  1.00271827  6325
ARIANE 5 R/B            
1 53766U 22110B   26116.68241030  .00012411 -69540-6  78357-3 0  9996
2 53766   4.1274 216.7919 7923524  48.6140 355.9665  1.54953704 10836
ZHONGXING-1E            
1 53813U 22112A   26117.00924125 -.00000160  00000+0  00000+0 0  9994
2 53813   0.0327 348.1273 0001543 341.4044 330.1968  1.00272305 13335
SES-20                  
1 53960U 22123A   26117.01155927  .00000000  00000+0  00000+0 0  9998
2 53960   0.0221 101.3070 0002023 321.8701  52.8977  1.00269832 13026
SES-21                  
1 53961U 22123B   26117.09996175  .00000059  00000+0  00000+0 0  9999
2 53961   0.0220  66.4488 0001370 315.4888  98.1693  1.00271477  6702
GALAXY 33 (G-33)        
1 54026U 22128A   26117.16294919  .00000068  00000+0  00000+0 0  9992
2 54026   0.0148 278.1612 0001807 104.2351 118.4156  1.00273448 13235
GALAXY 34 (G-34)        
1 54027U 22128B   26117.24781855  .00000049  00000+0  00000+0 0  9991
2 54027   0.0126 240.0125 0001555 158.3101 137.1267  1.00272309 13407
ANGOSAT 2               
1 54033U 22131A   26115.57160590  .00000121  00000+0  00000+0 0  9994
2 54033   0.0114 193.0368 0000720 280.1206 329.1965  1.00273024 12941
EUTELSAT HOTBIRD 13F    
1 54048U 22134A   26117.21711356  .00000077  00000+0  00000+0 0  9998
2 54048   0.0486 287.6857 0001995  70.4149 308.2678  1.00271670 12868
FALCON 9 R/B            
1 54049U 22134B   26114.58755575 -.00000056  00000+0  31750-3 0  9995
2 54049  27.5673  38.5621 8001686 253.8526  13.8316  1.35650327 17382
LDPE-2                  
1 54219U 22144A   26116.74875339 -.00000106  00000+0  00000+0 0  9992
2 54219   5.5193  63.8752 0000485  20.9533 195.0761  1.00535042 11322
COSMOS 2563             
1 54223U 22145A   26103.39401456 -.00001288  00000+0  00000+0 0  9992
2 54223  63.3307 288.7295 7072489 269.5688  16.4099  2.00520941 25269
FREGAT R/B              
1 54224U 22145B   26116.84714809 -.00001020  00000+0  00000+0 0  9990
2 54224  63.6524 286.7474 7067057 265.8091  17.8696  2.02027166 25691
EUTELSAT HOTBIRD 13G    
1 54225U 22146A   26117.21711356  .00000077  00000+0  00000+0 0  9998
2 54225   0.0379 232.8647 0002076 309.9333 123.5676  1.00270945  6954
FALCON 9 R/B            
1 54226U 22146B   26116.01069263 -.00000012  00000+0  30608-3 0  9990
2 54226  26.9196  61.5750 7963898 245.8434  17.7004  1.39821778 16976
ZHONGXING-19            
1 54230U 22148A   26117.11294791  .00000000  00000+0  00000+0 0  9990
2 54230   0.0079 220.6529 0002279 182.3814  15.9285  1.00270580 12865
GALAXY 31 (G-31)        
1 54243U 22153A   26117.15739148  .00000003  00000+0  00000+0 0  9997
2 54243   0.0116 240.8779 0001375 155.6070 114.3178  1.00273195  6622
GALAXY 32 (G-32)        
1 54244U 22153B   26117.19252366 -.00000184  00000+0  00000+0 0  9995
2 54244   0.0172 282.7305 0002902 101.2564 169.5020  1.00271683 12633
EUTELSAT 10B            
1 54259U 22157A   26117.21711356  .00000058  00000+0  00000+0 0  9996
2 54259   0.0604  89.8609 0001448  36.8125 176.6720  1.00267948 12514
FALCON 9 R/B            
1 54260U 22157B   26116.51029841  .00002037  00000+0  14660-2 0  9990
2 54260  22.0022 354.7913 7747678 349.6561   1.0503  1.71434154 18490
GALAXY 35 (G-35)        
1 54741U 22170A   26117.24749513 -.00000172  00000+0  00000+0 0  9994
2 54741   0.0367  92.1483 0002027 303.8650 175.2078  1.00271682 12383
GALAXY 36 (G-36)        
1 54742U 22170B   26117.23924775 -.00000195  00000+0  00000+0 0  9994
2 54742   0.0124 191.2370 0002780 233.9286 147.1920  1.00271478 12269
METEOSAT-12 (MTG-I1)    
1 54743U 22170C   26117.22267126 -.00000018  00000+0  00000+0 0  9998
2 54743   0.7245  22.4777 0001107 335.3296 297.2322  1.00269708 12465
SHIJIAN-23 (SJ-23)      
1 55131U 23002A   26116.78468714 -.00000002  00000+0  00000+0 0  9994
2 55131   3.5875  78.9404 0006662 269.6601 317.9126  1.00460649 11996
APSTAR-6E               
1 55239U 23005A   26116.91247388 -.00000329  00000+0  00000+0 0  9995
2 55239   0.0185 236.2827 0000353 151.6335 289.4756  1.00272681 18170
USA 342                 
1 55263U 23008A   26116.71264671  .00000126  00000+0  00000+0 0  9991
2 55263   0.0132 265.7116 0000143 194.9593  34.4066  1.00270547 12007
ELEKTRO-L 4             
1 55506U 23016A   26116.94253263  .00000000  00000+0  00000+0 0  9991
2 55506   0.0477  37.0872 0000551 222.1417 100.7649  1.00269402 11821
AMAZONAS NEXUS          
1 55508U 23017A   26117.16689597  .00000000  00000+0  00000+0 0  9992
2 55508   0.0197  20.2003 0005184  21.8546 172.1972  1.00268287  6530
INMARSAT 6-F2           
1 55683U 23022A   26116.93470762 -.00000175  00000+0  00000+0 0  9992
2 55683   5.4025  36.2165 3075082 214.6325   0.6834  1.00960743 10031
ZHONGXING-26            
1 55686U 23023A   26115.87706603 -.00000367  00000+0  00000+0 0  9997
2 55686   0.0627  67.4172 0004271 355.3993 231.9429  1.00269028 11702
LUCH-5X (OLYMP-K 2)     
1 55841U 23031A   26116.76016921  .00000022  00000+0  00000+0 0  9992
2 55841   0.0175  89.3153 0001471  91.5788   9.5064  1.00269339 11423
BREEZE-M R/B            
1 55842U 23031B   26116.41321818  .00000040  00000+0  00000+0 0  9999
2 55842   2.6971  80.1230 0067698   8.6290 351.6012  0.98958383 11267
ATLAS 5 CENTAUR DEB     
1 55850U 18079HC  26116.59786567 -.00000129  00000+0  00000+0 0  9998
2 55850  13.5152  31.9402 5052052 320.2111  12.0397  1.79277280 24078
GAOFEN-13 02            
1 55912U 23036A   26116.16686045 -.00000234  00000+0  00000+0 0  9996
2 55912   1.0201 354.5774 0004751 337.7039  90.1726  1.00269343 11579
SES-18                  
1 55970U 23038A   26117.01155927  .00000000  00000+0  00000+0 0  9997
2 55970   0.0198 252.0815 0001338  89.4860 134.4938  1.00269410 11590
SES-19                  
1 55971U 23038B   26117.19966600  .00000078  00000+0  00000+0 0  9990
2 55971   0.0209 285.7854 0001569 103.1091 123.2724  1.00271297 11580
INTELSAT 40E (IS-40E)   
1 56174U 23052A   26117.19252382 -.00000184  00000+0  00000+0 0  9996
2 56174   0.0139 238.6065 0001099 198.9307 115.9540  1.00272133 11314
VIASAT-3 F1             
1 56370U 23060A   26117.04685473 -.00000196  00000+0  00000+0 0  9991
2 56370   0.0169 278.7228 0001104 166.2945  57.9937  1.00271212 10922
ARCTURUS                
1 56371U 23060B   26116.96997176 -.00000071  00000+0  00000+0 0  9990
2 56371   2.6442  80.5687 0001623 358.0152 198.0876  1.00269907 10949
GS-1                    
1 56372U 23060C   26116.87752946 -.00000220  00000+0  00000+0 0  9991
2 56372   2.5944  80.4043 0004450 274.4448 263.5069  1.00288335  7024
BEIDOU-3 G4             
1 56564U 23066A   26116.94952769 -.00000293  00000+0  00000+0 0  9993
2 56564   0.5570 320.0463 0002817 160.5187 216.2962  1.00272365 10880
ARABSAT-7B (BADR-8)     
1 56757U 23075A   26117.21155843  .00000135  00000+0  00000+0 0  9990
2 56757   0.0802  34.6021 0005082 336.4566 306.3074  1.00272771 10603
NVS-01 (IRNSS-1J)       
1 56759U 23076A   26117.23197501 -.00000348  00000+0  00000+0 0  9999
2 56759   2.2858 246.5447 0005392  50.2517 131.4524  1.00268247 10607
NUSANTARA TIGA (SATRIA) 
1 57045U 23086A   26117.22127906 -.00000245  00000+0  00000+0 0  9996
2 57045   0.0476 313.4700 0004945  24.2281 103.1787  1.00271363  9255
FALCON 9 R/B            
1 57046U 23086B   26116.58644043 -.00000475  00000+0 -94383-2 0  9997
2 57046  26.7355 221.4797 7799862 163.2510 257.2633  1.46549083 14889
H2SAT (HEINRICH HERTZ)  
1 57213U 23093A   26117.22267126  .00000000  00000+0  00000+0 0  9998
2 57213   0.0173 229.4810 0001001 262.3438 164.2527  1.00270609 10404
